STARLINK-3720           
1 52136U 22029BA  26036.80261163  .00000284  00000+0  35955-4 0  9990
2 52136  53.2163 212.2654 0001402  89.9520 270.1633 15.08828769216129
STARLINK-3733           
1 52137U 22029BB  26036.85781293  .00001090  00000+0  86578-4 0  9990
2 52137  53.2165 212.0193 0001336  91.9381 268.1764 15.08838162216133
STARLINK-3723           
1 52138U 22029BC  26036.73269099  .00001053  00000+0  84215-4 0  9998
2 52138  53.2167 212.5794 0001319  86.5735 273.5408 15.08841057216112
STARLINK-3730           
1 52139U 22029BD  26036.77961716 -.00000567  00000+0 -17546-4 0  9992
2 52139  53.2158 222.3720 0001309  90.7600 269.3542 15.08845465215970
STARLINK-3682           
1 52140U 22029BE  26036.72165385  .00000100  00000+0  24368-4 0  9998
2 52140  53.2162 212.6311 0001363  91.4027 268.7121 15.08837398216115
MERIDIAN 10             
1 52145U 22030A   26035.37986410  .00000283  00000+0  00000+0 0  9999
2 52145  62.6639 154.9387 6752274 272.9955  17.8476  2.00603536 28367
TK-2                    
1 52150U 22031A   26037.12498520  .00006435  00000+0  48512-3 0  9990
2 52150  97.8367 231.7534 0015059 199.0982 160.9680 15.02731889210779
PUJIANG 2 (PJ-2)        
1 52151U 22031B   26037.32347522  .00001273  00000+0  12446-3 0  9990
2 52151  97.8563 222.7411 0010442 278.8725  81.1313 14.94129204210256
TIANPING 2A             
1 52153U 22032A   26037.27122919  .00003338  00000+0  29631-3 0  9996
2 52153  97.6053  78.7094 0008517 257.1346 102.8925 14.96808244210255
TIANPING 2B             
1 52155U 22032C   26037.33674900  .00004749  00000+0  37455-3 0  9997
2 52155  97.6069  85.3764 0019001 245.2636 114.6611 15.01072874210647
TIANPING 2C             
1 52156U 22032D   26037.32459726  .00010078  00000+0  62651-3 0  9992
2 52156  97.6019  90.7684 0005179 237.6188 122.4540 15.09830999211098
OMNI-L1                 
1 52157U 22033A   26037.16944399  .00003398  00000+0  43303-3 0  9991
2 52157  97.8489 118.9039 0005096   6.3190 353.8087 14.82164404208049
GNOMES-3                
1 52158U 22033B   26036.76059945  .00004132  00000+0  49596-3 0  9998
2 52158  97.8342 115.4168 0011606  40.0949 320.1120 14.84501486207832
ENMAP                   
1 52159U 22033C   26037.30370676  .00000373  00000+0  62974-4 0  9996
2 52159  97.9785 121.4185 0001403  72.9422 287.1940 14.74927131207363
ARCSAT-1                
1 52161U 22033E   26036.77680373  .00019897  00000+0  35649-3 0  9996
2 52161  97.2764 127.4645 0003855 327.6761  32.4254 15.49979475215327
LYNK TOWER 1            
1 52162U 22033F   26036.17519036  .00344523  46255-4  11132-2 0  9992
2 52162  97.2723 139.1363 0004791 238.1851 121.8956 15.90819544216044
NUSAT-26 (M SOMERVILLE) 
1 52184U 22033AD  26037.29626457  .00029607  00000+0  81386-3 0  9991
2 52184  97.2462 117.8127 0006151   8.5062 351.6286 15.37142518 84564
GLOBAL-18               
1 52196U 22034B   26037.33420152  .00027747  00000+0  67807-3 0  9999
2 52196  52.9832 159.4522 0004181 198.3351 161.7502 15.40629146216757
GAOFEN-3 03             
1 52200U 22035A   26036.27268653  .00000294  00000+0  10239-3 0  9999
2 52200  98.4097  46.7442 0000823  94.3650 265.7634 14.42223708201835
COSMOS 2554             
1 52202U 22036A   26037.29713666 -.00000027  00000+0  34957-4 0  9993
2 52202  67.1466 186.7944 0007149 266.7303  93.2963 13.96676226195678
ZHONGXING-6D            
1 52255U 22038A   26033.28444025 -.00000364  00000+0  00000+0 0  9999
2 52255   0.0438 244.5247 0002764  56.2630  59.1466  1.00270291 14070
DAQI 1                  
1 52257U 22039A   26037.30916385  .00000882  00000+0  20348-3 0  9997
2 52257  98.1376 338.9631 0002709 318.5308  41.5685 14.57624860202877
STARLINK-3761           
1 52262U 22041B   26036.98292644  .00000490  00000+0  48835-4 0  9991
2 52262  53.2163 251.4122 0001321  87.7044 272.4099 15.08851918209575
STARLINK-3786           
1 52263U 22041C   26036.98661819  .00001402  00000+0  10619-3 0  9998
2 52263  53.2162 251.4442 0001322  99.1976 260.9166 15.08827544209577
STARLINK-3795           
1 52264U 22041D   26036.91301432  .00000602  00000+0  55935-4 0  9996
2 52264  53.2161 251.7740 0001422  88.8377 271.2778 15.08839312209561
STARLINK-3740           
1 52265U 22041E   26036.97557461 -.00002670  00000+0 -14973-3 0  9993
2 52265  53.2163 251.4932 0001539  88.9083 271.2086 15.08841426209570
STARLINK-3739           
1 52266U 22041F   26036.77317694  .00000146  00000+0  27289-4 0  9993
2 52266  53.2159 252.4013 0001291  93.8133 266.3007 15.08838624209544
STARLINK-3748           
1 52267U 22041G   26037.03445695  .00000246  00000+0  33582-4 0  9991
2 52267  53.2163 251.2342 0001491  91.2087 268.9076 15.08836001209589
STARLINK-3746           
1 52268U 22041H   26036.88356256 -.00000080  00000+0  13072-4 0  9997
2 52268  53.2164 251.8265 0001359  90.2871 269.8277 15.08837936209563
STARLINK-3791           
1 52269U 22041J   26037.03077344  .00001991  00000+0  14314-3 0  9994
2 52269  53.2160 251.2429 0001261  89.7566 270.3570 15.08842210209588
STARLINK-3804           
1 52270U 22041K   26036.89093681  .00001262  00000+0  97356-4 0  9990
2 52270  53.2168 251.8990 0001509  83.7731 276.3433 15.08852125209568
STARLINK-3788           
1 52271U 22041L   26037.02710310  .00003927  00000+0  26461-3 0  9990
2 52271  53.2155 251.2604 0001283  87.4531 272.6608 15.08853968209580
STARLINK-3781           
1 52272U 22041M   26036.75573675  .00001451  00000+0  10927-3 0  9991
2 52272  53.2164 252.5165 0001719  97.1715 262.9472 15.08821822209544
STARLINK-3782           
1 52273U 22041N   26036.79349469  .00000838  00000+0  70739-4 0  9994
2 52273  53.2161 242.6938 0001492  99.5224 260.5937 15.08838867209681
STARLINK-3790           
1 52274U 22041P   26036.87989108  .00001655  00000+0  12200-3 0  9990
2 52274  53.2163 251.9203 0001383  95.4675 264.6475 15.08846666209561
STARLINK-3784           
1 52275U 22041Q   26036.75478119 -.00002362  00000+0 -13044-3 0  9998
2 52275  53.2169 252.4828 0001528  89.8546 270.2622 15.08820091209541
STARLINK-3778           
1 52276U 22041R   26037.00868434 -.00008635  00000+0 -52467-3 0  9992
2 52276  53.2145 251.3440 0001436  91.8686 268.2470 15.08868825209589
STARLINK-3780           
1 52278U 22041T   26036.87253141 -.00002542  00000+0 -14170-3 0  9991
2 52278  53.2166 251.9546 0001491  93.0930 267.0233 15.08840445209564
STARLINK-3764           
1 52280U 22041V   26036.86149008  .00002043  00000+0  14638-3 0  9992
2 52280  53.2155 252.0075 0001567  74.4503 285.6662 15.08845884209561
STARLINK-3779           
1 52281U 22041W   26037.00964886  .00000219  00000+0  31836-4 0  9992
2 52281  53.2160 251.3391 0001731  91.7703 268.3487 15.08839220209580
STARLINK-3783           
1 52282U 22041X   26036.85504855  .00000599  00000+0  55735-4 0  9996
2 52282  53.2165 242.0333 0001320  91.1984 268.9160 15.08838840209691
STARLINK-3789           
1 52283U 22041Y   26036.86884673 -.00002097  00000+0 -11370-3 0  9990
2 52283  53.2160 251.9722 0001308  89.5890 270.5252 15.08840785209569
STARLINK-3561           
1 52284U 22041Z   26036.78144910  .00000660  00000+0  59552-4 0  9992
2 52284  53.2160 242.3640 0001787  93.5641 266.5556 15.08843144209680
STARLINK-3802           
1 52286U 22041AB  26036.97280550  .00001143  00000+0  89851-4 0  9998
2 52286  53.2162 241.5055 0001393  88.6388 271.4764 15.08847888209710
STARLINK-3822           
1 52287U 22041AC  26036.85781076  .00001046  00000+0  83793-4 0  9996
2 52287  53.2164 252.0234 0001393  82.1483 277.9667 15.08839973209566
STARLINK-3776           
1 52288U 22041AD  26036.77040702  .00000691  00000+0  61510-4 0  9990
2 52288  53.2169 242.4148 0001398  89.3596 270.7556 15.08841454209686
STARLINK-3751           
1 52289U 22041AE  26036.98385606  .00000009  00000+0  18681-4 0  9993
2 52289  53.2161 241.4557 0001368  93.9937 266.1211 15.08833876209719
STARLINK-3772           
1 52290U 22041AF  26036.76032963  .00001201  00000+0  93562-4 0  9992
2 52290  53.2161 242.4593 0001483  90.6871 269.4291 15.08842222209686
STARLINK-3753           
1 52292U 22041AH  26036.88817405 -.00000323  00000+0 -21982-5 0  9993
2 52292  53.2154 241.8843 0001368  92.6981 267.4168 15.08844687209708
STARLINK-3771           
1 52293U 22041AJ  26036.76768973  .00001055  00000+0  84391-4 0  9999
2 52293  53.2158 242.4374 0001521  88.6095 271.5072 15.08842541209685
STARLINK-3777           
1 52294U 22041AK  26036.95073535  .00000802  00000+0  68498-4 0  9993
2 52294  53.2160 241.6037 0001649  88.6151 271.5030 15.08839215209712
STARLINK-3765           
1 52295U 22041AL  26036.76305692 -.00000715  00000+0 -26850-4 0  9996
2 52295  53.2162 242.4480 0001216  90.8964 269.2168 15.08848057209689
STARLINK-3766           
1 52296U 22041AM  26037.00593391  .00001444  00000+0  10878-3 0  9990
2 52296  53.2159 241.3532 0001574  92.2337 267.8836 15.08845853209721
STARLINK-3758           
1 52297U 22041AN  26036.75937863  .00001326  00000+0  10142-3 0  9991
2 52297  53.2160 242.4642 0001328  81.7410 278.3733 15.08818511209689
STARLINK-3760           
1 52298U 22041AP  26036.76668291  .00001842  00000+0  13379-3 0  9997
2 52298  53.2158 242.0451 0001388  90.0222 270.0929 15.08844073209690
STARLINK-3769           
1 52300U 22041AR  26036.86241201  .00000808  00000+0  68885-4 0  9994
2 52300  53.2163 241.9992 0001415  98.4064 261.7089 15.08837399210920
STARLINK-3768           
1 52301U 22041AS  26036.94705522  .00000204  00000+0  30903-4 0  9995
2 52301  53.2156 241.6201 0001340  89.2715 270.8430 15.08836787209717
STARLINK-3564           
1 52302U 22041AT  26036.85229330  .00000976  00000+0  79393-4 0  9996
2 52302  53.2162 232.0442 0001436  90.2060 269.9097 15.08836300209839
STARLINK-3742           
1 52303U 22041AU  26036.99857937  .00000384  00000+0  42240-4 0  9996
2 52303  53.2165 241.3874 0001371  87.8850 272.2299 15.08833498210942
